{
    "links": {
        "self": "http://www.neowsapp.com/rest/v1/neo/3794986?api_key=iIulBulltgU6a56xZRHN4H3l9WmuAYTsLGpBGhQ2"
    },
    "id": "3794986",
    "neo_reference_id": "3794986",
    "name": "(2017 YB2)",
    "designation": "2017 YB2",
    "nasa_jpl_url": "http://ssd.jpl.nasa.gov/sbdb.cgi?sstr=3794986",
    "absolute_magnitude_h": 24.9,
    "estimated_diameter": {
        "kilometers": {
            "estimated_diameter_min": 0.0278326768,
            "estimated_diameter_max": 0.0622357573
        },
        "meters": {
            "estimated_diameter_min": 27.8326768072,
            "estimated_diameter_max": 62.2357573367
        },
        "miles": {
            "estimated_diameter_min": 0.0172944182,
            "estimated_diameter_max": 0.0386714948
        },
        "feet": {
            "estimated_diameter_min": 91.3145593761,
            "estimated_diameter_max": 204.1855621004
        }
    },
    "is_potentially_hazardous_asteroid": false,
    "close_approach_data": [
        {
            "close_approach_date": "2017-12-11",
            "close_approach_date_full": "2017-Dec-11 00:46",
            "epoch_date_close_approach": 1512953160000,
            "relative_velocity": {
                "kilometers_per_second": "7.226647299",
                "kilometers_per_hour": "26015.9302763822",
                "miles_per_hour": "16165.287343122"
            },
            "miss_distance": {
                "astronomical": "0.0448208351",
                "lunar": "17.4353048539",
                "kilometers": "6705101.462581237",
                "miles": "4166356.8523135906"
            },
            "orbiting_body": "Earth"
        },
        {
            "close_approach_date": "2020-01-05",
            "close_approach_date_full": "2020-Jan-05 04:41",
            "epoch_date_close_approach": 1578199260000,
            "relative_velocity": {
                "kilometers_per_second": "14.2244498239",
                "kilometers_per_hour": "51208.0193661181",
                "miles_per_hour": "31818.6718111305"
            },
            "miss_distance": {
                "astronomical": "0.2866735066",
                "lunar": "111.5159940674",
                "kilometers": "42885745.972790942",
                "miles": "26647966.8648493196"
            },
            "orbiting_body": "Earth"
        }
    ],
    "orbital_data": {
        "orbit_id": "3",
        "orbit_determination_date": "2017-12-29 06:22:27",
        "first_observation_date": "2017-12-22",
        "last_observation_date": "2017-12-28",
        "data_arc_in_days": 6,
        "observations_used": 28,
        "orbit_uncertainty": "8",
        "minimum_orbit_intersection": ".0144907",
        "jupiter_tisserand_invariant": "4.256",
        "epoch_osculation": "2458112.5",
        "eccentricity": ".3806776771296604",
        "semi_major_axis": "1.608066411080167",
        "inclination": "6.986529949571189",
        "ascending_node_longitude": "251.5469049994437",
        "orbital_period": "744.8252614883523",
        "perihelion_distance": ".9959114250399393",
        "perihelion_argument": "167.9674185055922",
        "aphelion_distance": "2.220221397120394",
        "perihelion_time": "2458083.512889854815",
        "mean_anomaly": "14.0104802989819",
        "mean_motion": ".4833348418938255",
        "equinox": "J2000",
        "orbit_class": {
            "orbit_class_type": "APO",
            "orbit_class_description": "Near-Earth asteroid orbits which cross the Earth’s orbit similar to that of 1862 Apollo",
            "orbit_class_range": "a (semi-major axis) > 1.0 AU; q (perihelion) < 1.017 AU"
        }
    },
    "is_sentry_object": false
}